CTC2_L_00666007-03
1 30544U 23932HA  26037.47799769  .00000000  00000+0  00000-0 0  9990
2 30544  65.0000 180.0000 0000000   0.0000 144.0000  2.02645302    12
CTC2_L_00666007-04
1 30545U 24774IW  26037.47799769  .00000000  00000+0  00000-0 0  9996
2 30545  65.0000 180.0000 0000000   0.0000 180.0000  2.02645302    13
CTC2_L_00666007-05
1 30546U 26439NY  26037.47799769  .00000000  00000+0  00000-0 0  9997
2 30546  65.0000 180.0000 0000000   0.0000 216.0000  2.02645302    14
CTC2_L_00666007-06
1 30547U 23729NQ  26037.47799769  .00000000  00000+0  00000-0 0  9997
2 30547  65.0000 180.0000 0000000   0.0000 252.0000  2.02645302    15
CTC2_L_00666007-07
1 30548U 23039KT  26037.47799769  .00000000  00000+0  00000-0 0  9992
2 30548  65.0000 180.0000 0000000   0.0000 288.0000  2.02645302    15
CTC2_L_00666007-08
1 30549U 25169RV  26037.47799769  .00000000  00000+0  00000-0 0  9999
2 30549  65.0000 180.0000 0000000   0.0000 324.0000  2.02645302    17
CTC2_L_00666007-09
1 30550U 24603CQ  26037.47799769  .00000000  00000+0  00000-0 0  9993
2 30550  65.0000 180.0000 0000000   0.0000   0.0000  2.02645302    10
CTC2_L_00666007-10
1 30551U 25858ZH  26037.47799769  .00000000  00000+0  00000-0 0  9997
2 30551  65.0000 180.0000 0000000   0.0000  36.0000  2.02645302    10
CTC2_L_00666008-01
1 30552U 26106AD  26037.47799769  .00000000  00000+0  00000-0 0  9995
2 30552  65.0000 210.0000 0000000   0.0000  84.0000  2.02645302    18
CTC2_L_00666008-02
1 30553U 23178IT  26037.47799769  .00000000  00000+0  00000-0 0  9992
2 30553  65.0000 210.0000 0000000   0.0000 120.0000  2.02645302    10
CTC2_L_00666008-03
1 30554U 24620PP  26037.47799769  .00000000  00000+0  00000-0 0  9996
2 30554  65.0000 210.0000 0000000   0.0000 156.0000  2.02645302    10
CTC2_L_00666008-04
1 30555U 26532SO  26037.47799769  .00000000  00000+0  00000-0 0  9991
2 30555  65.0000 210.0000 0000000   0.0000 192.0000  2.02645302    11
CTC2_L_00666008-05
1 30556U 25029CF  26037.47799769  .00000000  00000+0  00000-0 0  9992
2 30556  65.0000 210.0000 0000000   0.0000 228.0000  2.02645302    12
CTC2_L_00666008-06
1 30557U 26314XV  26037.47799769  .00000000  00000+0  00000-0 0  9991
2 30557  65.0000 210.0000 0000000   0.0000 264.0000  2.02645302    13
CTC2_L_00666008-07
1 30558U 26363RX  26037.47799769  .00000000  00000+0  00000-0 0  9996
2 30558  65.0000 210.0000 0000000   0.0000 300.0000  2.02645302    15
CTC2_L_00666008-08
1 30559U 24220ID  26037.47799769  .00000000  00000+0  00000-0 0  9997
2 30559  65.0000 210.0000 0000000   0.0000 336.0000  2.02645302    15
CTC2_L_00666008-09
1 30560U 22482ZH  26037.47799769  .00000000  00000+0  00000-0 0  9997
2 30560  65.0000 210.0000 0000000   0.0000  12.0000  2.02645302    18
CTC2_L_00666008-10
1 30561U 25716JZ  26037.47799769  .00000000  00000+0  00000-0 0  9991
2 30561  65.0000 210.0000 0000000   0.0000  48.0000  2.02645302    18
CTC2_L_00666009-01
1 30562U 23044YU  26037.47799769  .00000000  00000+0  00000-0 0  9994
2 30562  65.0000 240.0000 0000000   0.0000  96.0000  2.02645302    15
CTC2_L_00666009-02
1 30563U 24963M   26037.47799769  .00000000  00000+0  00000-0 0  9996
2 30563  65.0000 240.0000 0000000   0.0000 132.0000  2.02645302    17
CTC2_L_00666009-03
1 30564U 26555OX  26037.47799769  .00000000  00000+0  00000-0 0  9996
2 30564  65.0000 240.0000 0000000   0.0000 168.0000  2.02645302    17
CTC2_L_00666009-04
1 30565U 26207PI  26037.47799769  .00000000  00000+0  00000-0 0  9991
2 30565  65.0000 240.0000 0000000   0.0000 204.0000  2.02645302    19
CTC2_L_00666009-05
1 30566U 24101CF  26037.47799769  .00000000  00000+0  00000-0 0  9993
2 30566  65.0000 240.0000 0000000   0.0000 240.0000  2.02645302    10
CTC2_L_00666009-06
1 30567U 24229UF  26037.47799769  .00000000  00000+0  00000-0 0  9995
2 30567  65.0000 240.0000 0000000   0.0000 276.0000  2.02645302    10
CTC2_L_00666009-07
1 30568U 25900YI  26037.47799769  .00000000  00000+0  00000-0 0  9993
2 30568  65.0000 240.0000 0000000   0.0000 312.0000  2.02645302    12
CTC2_L_00666009-08
1 30569U 22052QT  26037.47799769  .00000000  00000+0  00000-0 0  9999
2 30569  65.0000 240.0000 0000000   0.0000 348.0000  2.02645302    12
CTC2_L_00666009-09
1 30570U 22894MW  26037.47799769  .00000000  00000+0  00000-0 0  9995
2 30570  65.0000 240.0000 0000000   0.0000  24.0000  2.02645302    15
CTC2_L_00666009-10
1 30571U 24243XC  26037.47799769  .00000000  00000+0  00000-0 0  9996
2 30571  65.0000 240.0000 0000000   0.0000  60.0000  2.02645302    16
CTC2_L_00666010-01
1 30572U 24707LU  26037.47799769  .00000000  00000+0  00000-0 0  9992
2 30572  65.0000 270.0000 0000000   0.0000 108.0000  2.02645302    13
CTC2_L_00666010-02
1 30573U 23259SM  26037.47799769  .00000000  00000+0  00000-0 0  9994
2 30573  65.0000 270.0000 0000000   0.0000 144.0000  2.02645302    14
CTC2_L_00666010-03
1 30574U 26556SZ  26037.47799769  .00000000  00000+0  00000-0 0  9998
2 30574  65.0000 270.0000 0000000   0.0000 180.0000  2.02645302    15
CTC2_L_00666010-04
1 30575U 22030BM  26037.47799769  .00000000  00000+0  00000-0 0  9992
2 30575  65.0000 270.0000 0000000   0.0000 216.0000  2.02645302    16
CTC2_L_00666010-05
1 30576U 22800ND  26037.47799769  .00000000  00000+0  00000-0 0  9998
2 30576  65.0000 270.0000 0000000   0.0000 252.0000  2.02645302    17
CTC2_L_00666010-06
1 30577U 24765XH  26037.47799769  .00000000  00000+0  00000-0 0  9991
2 30577  65.0000 270.0000 0000000   0.0000 288.0000  2.02645302    17
CTC2_L_00666010-07
1 30578U 24169MC  26037.47799769  .00000000  00000+0  00000-0 0  9990
2 30578  65.0000 270.0000 0000000   0.0000 324.0000  2.02645302    19
CTC2_L_00666010-08
1 30579U 22839F   26037.47799769  .00000000  00000+0  00000-0 0  9993
2 30579  65.0000 270.0000 0000000   0.0000   0.0000  2.02645302    11
CTC2_L_00666010-09
1 30580U 24394AJ  26037.47799769  .00000000  00000+0  00000-0 0  9993
2 30580  65.0000 270.0000 0000000   0.0000  36.0000  2.02645302    12
CTC2_L_00666010-10
1 30581U 26037IR  26037.47799769  .00000000  00000+0  00000-0 0  9990
2 30581  65.0000 270.0000 0000000   0.0000  72.0000  2.02645302    13
CTC2_L_00666011-01
1 30582U 26995AS  26037.47799769  .00000000  00000+0  00000-0 0  9994
2 30582  65.0000 300.0000 0000000   0.0000 120.0000  2.02645302    12
CTC2_L_00666011-02
1 30583U 25782QC  26037.47799769  .00000000  00000+0  00000-0 0  9998
2 30583  65.0000 300.0000 0000000   0.0000 156.0000  2.02645302    12
CTC2_L_00666011-03
1 30584U 22536XQ  26037.47799769  .00000000  00000+0  00000-0 0  9993
2 30584  65.0000 300.0000 0000000   0.0000 192.0000  2.02645302    13
CTC2_L_00666011-04
1 30585U 25560GZ  26037.47799769  .00000000  00000+0  00000-0 0  9994
2 30585  65.0000 300.0000 0000000   0.0000 228.0000  2.02645302    14
CTC2_L_00666011-05
1 30586U 23725UM  26037.47799769  .00000000  00000+0  00000-0 0  9996
2 30586  65.0000 300.0000 0000000   0.0000 264.0000  2.02645302    15
CTC2_L_00666011-06
1 30587U 23877DO  26037.47799769  .00000000  00000+0  00000-0 0  9995
2 30587  65.0000 300.0000 0000000   0.0000 300.0000  2.02645302    17
CTC2_L_00666011-07
1 30588U 26563EX  26037.47799769  .00000000  00000+0  00000-0 0  9991
2 30588  65.0000 300.0000 0000000   0.0000 336.0000  2.02645302    17
CTC2_L_00666011-08
1 30589U 25720CX  26037.47799769  .00000000  00000+0  00000-0 0  9996
2 30589  65.0000 300.0000 0000000   0.0000  12.0000  2.02645302    19
CTC2_L_00666011-09
1 30590U 23221DH  26037.47799769  .00000000  00000+0  00000-0 0  9992
2 30590  65.0000 300.0000 0000000   0.0000  48.0000  2.02645302    10
CTC2_L_00666011-10
1 30591U 25698IM  26037.47799769  .00000000  00000+0  00000-0 0  9993
2 30591  65.0000 300.0000 0000000   0.0000  84.0000  2.02645302    11
CTC2_L_00666012-01
1 30592U 26637OF  26037.47799769  .00000000  00000+0  00000-0 0  9998
2 30592  65.0000 330.0000 0000000   0.0000 132.0000  2.02645302    19
CTC2_L_00666012-02
1 30593U 26871XG  26037.47799769  .00000000  00000+0  00000-0 0  9999
2 30593  65.0000 330.0000 0000000   0.0000 168.0000  2.02645302    19
CTC2_L_00666012-03
1 30594U 25982DJ  26037.47799769  .00000000  00000+0  00000-0 0  9992
2 30594  65.0000 330.0000 0000000   0.0000 204.0000  2.02645302    11
CTC2_L_00666012-04
1 30595U 25334FD  26037.47799769  .00000000  00000+0  00000-0 0  9994
2 30595  65.0000 330.0000 0000000   0.0000 240.0000  2.02645302    12
CTC2_L_00666012-05
1 30596U 25462EI  26037.47799769  .00000000  00000+0  00000-0 0  9997
2 30596  65.0000 330.0000 0000000   0.0000 276.0000  2.02645302    12
CTC2_L_00666012-06
1 30597U 24869IN  26037.47799769  .00000000  00000+0  00000-0 0  9998
2 30597  65.0000 330.0000 0000000   0.0000 312.0000  2.02645302    14
CTC2_L_00666012-07
1 30598U 22182GY  26037.47799769  .00000000  00000+0  00000-0 0  9995
2 30598  65.0000 330.0000 0000000   0.0000 348.0000  2.02645302    14
CTC2_L_00666012-08
1 30599U 22239AW  26037.47799769  .00000000  00000+0  00000-0 0  9999
2 30599  65.0000 330.0000 0000000   0.0000  24.0000  2.02645302    16
CTC2_L_00666012-09
1 30600U 23495RJ  26037.47799769  .00000000  00000+0  00000-0 0  9997
2 30600  65.0000 330.0000 0000000   0.0000  60.0000  2.02645302    19
CTC2_L_00666012-10
1 30601U 23276SS  26037.47799769  .00000000  00000+0  00000-0 0  9995
2 30601  65.0000 330.0000 0000000   0.0000  96.0000  2.02645302    19
